[{"OBJECT_NAME":"STARLINK-35296","OBJECT_ID":"2025-218L","EPOCH":"2026-03-09T15:00:33.034176","MEAN_MOTION":15.05649542,"ECCENTRICITY":0.000221,"INCLINATION":97.6028,"RA_OF_ASC_NODE":292.9464,"ARG_OF_PERICENTER":80.139,"MEAN_ANOMALY":280.0086,"EPHEMERIS_TYPE":0,"CLASSIFICATION_TYPE":"U","NORAD_CAT_ID":65801,"ELEMENT_SET_NO":999,"REV_AT_EPOCH":2496,"BSTAR":0.0001944,"MEAN_MOTION_DOT":2.745e-5,"MEAN_MOTION_DDOT":0},{"OBJECT_NAME":"DELTA 1 DEB","OBJECT_ID":"1977-065EC","EPOCH":"2026-03-09T02:08:40.996032","MEAN_MOTION":13.78682297,"ECCENTRICITY":0.05923881,"INCLINATION":29.1022,"RA_OF_ASC_NODE":69.0593,"ARG_OF_PERICENTER":230.0658,"MEAN_ANOMALY":124.6392,"EPHEMERIS_TYPE":0,"CLASSIFICATION_TYPE":"U","NORAD_CAT_ID":10470,"ELEMENT_SET_NO":999,"REV_AT_EPOCH":39795,"BSTAR":0.00059129389,"MEAN_MOTION_DOT":2.469e-5,"MEAN_MOTION_DDOT":0}]
